[{"OBJECT_NAME":"STARLING 4","OBJECT_ID":"2023-100A","EPOCH":"2026-03-07T00:40:50.723040","MEAN_MOTION":15.06148396,"ECCENTRICITY":0.00078037,"INCLINATION":99.5115,"RA_OF_ASC_NODE":59.9711,"ARG_OF_PERICENTER":83.0949,"MEAN_ANOMALY":277.1159,"EPHEMERIS_TYPE":0,"CLASSIFICATION_TYPE":"U","NORAD_CAT_ID":57386,"ELEMENT_SET_NO":999,"REV_AT_EPOCH":14452,"BSTAR":5.567556e-6,"MEAN_MOTION_DOT":-9.0e-8,"MEAN_MOTION_DDOT":0},{"OBJECT_NAME":"STARLINK-34723","OBJECT_ID":"2025-152A","EPOCH":"2026-03-09T13:25:56.392608","MEAN_MOTION":15.05672971,"ECCENTRICITY":0.00018714,"INCLINATION":97.6019,"RA_OF_ASC_NODE":285.3137,"ARG_OF_PERICENTER":83.883,"MEAN_ANOMALY":276.261,"EPHEMERIS_TYPE":0,"CLASSIFICATION_TYPE":"U","NORAD_CAT_ID":64842,"ELEMENT_SET_NO":999,"REV_AT_EPOCH":3539,"BSTAR":0.0005690792,"MEAN_MOTION_DOT":8.165e-5,"MEAN_MOTION_DDOT":0}]
