STARLING 4              
1 57386U 23100A   26066.02836485 -.00000009  00000+0  55676-5 0  9994
2 57386  99.5115  59.9711 0007803  83.0949 277.1159 15.06148396144525
STARLINK-34723          
1 64842U 25152A   26068.55968047  .00008165  00000+0  56908-3 0  9995
2 64842  97.6019 285.3137 0001871  83.8830 276.2610 15.05672971 35391
